{
  "type": "FeatureCollection",
  "features": [
    {
      "type": "Feature",
      "geometry": {
        "type": "Polygon",
        "coordinates": [
          [
            [
              126.969432420408,
              37.55820246424118
            ],
            [
              126.96936867664951,
              37.55870797053304
            ],
            [
              126.96940787535547,
              37.55922621864813
            ],
            [
              126.969549848671,
              37.55975498936844
            ],
            [
              126.96979398864457,
              37.56029201841659
            ],
            [
              126.97013924983132,
              37.56083500615173
            ],
            [
              126.97058415376985,
              37.56138162741702
            ],
            [
              126.9711267953132,
              37.56192954149629
            ],
            [
              126.97176485078697,
              37.562476402137335
            ],
            [
              126.97249558793965,
              37.56301986759893
            ],
            [
              126.97331587764259,
              37.56355761067854
            ],
            [
              126.97422220728933,
              37.564087328677736
            ],
            [
              126.97521069583719,
              37.56460675326272
            ],
            [
              126.97627711042647,
              37.56511366017769
            ],
            [
              126.97741688450614,
              37.56560587876939
            ],
            [
              126.97862513738863,
              37.56608130128227
            ],
            [
              126.97989669514962,
              37.56653789188412
            ],
            [
              126.98122611278353,
              37.56697369538389
            ],
            [
              126.98260769751998,
              37.567386845604105
            ],
            [
              126.98403553320102,
              37.567775573372074
            ],
            [
              126.98550350561506,
              37.56813821409583
            ],
            [
              126.98700532867885,
              37.568473214892116
            ],
            [
              126.98853457135546,
              37.568779141236085
            ],
            [
              126.99008468519298,
              37.56905468310417
            ],
            [
              126.991649032366,
              37.5692986605838
            ],
            [
              126.99322091409974,
              37.56951002892593
            ],
            [
              126.9947935993553,
              37.56968788301889
            ],
            [
              126.99636035365297,
              37.56983146126414
            ],
            [
              126.99791446791033,
              37.56994014883759
            ],
            [
              126.99944928717152,
              37.57001348032236
            ],
            [
              127.00095823910485,
              37.57005114170178
            ],
            [
              127.00243486214646,
              37.57005297170405
            ],
            [
              127.00387283316981,
              37.57001896249281
            ],
            [
              127.00526599456222,
              37.56994925970072
            ],
            [
              127.00660838059271,
              37.56984416180585
            ],
            [
              127.00789424295823,
              37.5697041188535
            ],
            [
              127.00911807539869,
              37.56952973052911
            ],
            [
              127.01027463727573,
              37.56932174359026
            ],
            [
              127.01135897601381,
              37.569081048668934
            ],
            [
              127.01236644830799,
              37.56880867645775
            ],
            [
              127.01329274000723,
              37.56850579329633
            ],
            [
              127.01413388458829,
              37.56817369617687
            ],
            [
              127.01488628014091,
              37.56781380719022
            ],
            [
              127.01554670479184,
              37.56742766743627
            ],
            [
              127.01611233050133,
              37.567016930424735
            ],
            [
              127.01658073517326,
              37.56658335499455
            ],
            [
              127.0169499130269,
              37.56612879778226
            ],
            [
              127.01721828318603,
              37.56565520527166
            ],
            [
              127.0173846964484,
              37.56516460545856
            ],
            [
              127.01744844020689,
              37.5646590991667
            ],
            [
              127.01740924150093,
              37.56414085105161
            ],
            [
              127.0172672681854,
              37.563612080331296
            ],
            [
              127.01702312821183,
              37.56307505128315
            ],
            [
              127.01667786702508,
              37.56253206354801
            ],
            [
              127.01623296308655,
              37.56198544228272
            ],
            [
              127.0156903215432,
              37.56143752820345
            ],
            [
              127.01505226606943,
              37.560890667562404
            ],
            [
              127.01432152891675,
              37.56034720210081
            ],
            [
              127.01350123921381,
              37.5598094590212
            ],
            [
              127.01259490956707,
              37.559279741022
            ],
            [
              127.01160642101921,
              37.55876031643702
            ],
            [
              127.01054000642993,
              37.55825340952205
            ],
            [
              127.00940023235026,
              37.55776119093035
            ],
            [
              127.00819197946777,
              37.55728576841747
            ],
            [
              127.00692042170678,
              37.55682917781562
            ],
            [
              127.00559100407287,
              37.556393374315846
            ],
            [
              127.00420941933642,
              37.555980224095634
            ],
            [
              127.00278158365538,
              37.555591496327665
            ],
            [
              127.00131361124134,
              37.55522885560391
            ],
            [
              126.99981178817755,
              37.554893854807624
            ],
            [
              126.99828254550094,
              37.554587928463654
            ],
            [
              126.99673243166342,
              37.55431238659557
            ],
            [
              126.9951680844904,
              37.55406840911594
            ],
            [
              126.99359620275666,
              37.553857040773806
            ],
            [
              126.9920235175011,
              37.55367918668085
            ],
            [
              126.99045676320343,
              37.5535356084356
            ],
            [
              126.98890264894607,
              37.55342692086215
            ],
            [
              126.98736782968489,
              37.55335358937738
            ],
            [
              126.98585887775155,
              37.55331592799796
            ],
            [
              126.98438225470994,
              37.55331409799569
            ],
            [
              126.98294428368659,
              37.55334810720693
            ],
            [
              126.98155112229418,
              37.55341780999902
            ],
            [
              126.98020873626369,
              37.55352290789389
            ],
            [
              126.97892287389817,
              37.55366295084624
            ],
            [
              126.97769904145771,
              37.55383733917063
            ],
            [
              126.97654247958067,
              37.55404532610948
            ],
            [
              126.97545814084259,
              37.554286021030805
            ],
            [
              126.97445066854841,
              37.55455839324199
            ],
            [
              126.97352437684917,
              37.55486127640341
            ],
            [
              126.97268323226811,
              37.55519337352287
            ],
            [
              126.97193083671549,
              37.55555326250952
            ],
            [
              126.97127041206456,
              37.55593940226347
            ],
            [
              126.97070478635507,
              37.556350139275004
            ],
            [
              126.97023638168314,
              37.55678371470519
            ],
            [
              126.9698672038295,
              37.55723827191748
            ],
            [
              126.96959883367037,
              37.55771186442808
            ],
            [
              126.969432420408,
              37.55820246424118
            ]
          ]
        ]
      },
      "properties": {
        "name": "compact_v9_ellipse"
      }
    }
  ]
}
