{
  "type": "FeatureCollection",
  "features": [
    {
      "type": "Feature",
      "geometry": {
        "type": "Point",
        "coordinates": [
          127.015376,
          37.564875
        ]
      },
      "properties": {
        "role": "jungbu_fire_station",
        "name": "Jungbu Fire Station"
      }
    },
    {
      "type": "Feature",
      "geometry": {
        "type": "Point",
        "coordinates": [
          126.971443,
          37.558488
        ]
      },
      "properties": {
        "role": "seoul_station_reference",
        "name": "Seoul Station Reference",
        "note": "Reference point for analysis area, not an incident destination."
      }
    },
    {
      "type": "Feature",
      "geometry": {
        "type": "LineString",
        "coordinates": [
          [
            127.015376,
            37.564875
          ],
          [
            126.971443,
            37.558488
          ]
        ]
      },
      "properties": {
        "role": "analysis_axis",
        "name": "Jungbu Fire Station to Seoul Station axis",
        "major_axis_m": 3937.020031747945,
        "bearing_deg": 259.6208564968605
      }
    },
    {
      "type": "Feature",
      "geometry": {
        "type": "Polygon",
        "coordinates": [
          [
            [
              126.97144111704509,
              37.558494104822294
            ],
            [
              126.97137731558398,
              37.558888596172324
            ],
            [
              126.97136658931659,
              37.55928982077443
            ],
            [
              126.97140896408344,
              37.55969681204342
            ],
            [
              126.9715043378,
              37.56010858950166
            ],
            [
              126.97165248070263,
              37.560524161141196
            ],
            [
              126.97185303590213,
              37.56094252581354
            ],
            [
              126.97210552024342,
              37.56136267564156
            ],
            [
              126.97240932546961,
              37.56178359844752
            ],
            [
              126.97276371968734,
              37.5622042801915
            ],
            [
              126.97316784912985,
              37.562623707414346
            ],
            [
              126.97362074021396,
              37.563040869679135
            ],
            [
              126.97412130188533,
              37.563454762005435
            ],
            [
              126.97466832824709,
              37.56386438729037
            ],
            [
              126.9752605014648,
              37.56426875871076
            ],
            [
              126.97589639494133,
              37.56466690210043
            ],
            [
              126.97657447675357,
              37.565057858297074
            ],
            [
              126.97729311334307,
              37.565440685452984
            ],
            [
              126.97805057345131,
              37.56581446130401
            ],
            [
              126.97884503229056,
              37.566178285391366
            ],
            [
              126.97967457593991,
              37.566531281230986
            ],
            [
              126.98053720595601,
              37.56687259842496
            ],
            [
              126.98143084418763,
              37.56720141471027
            ],
            [
              126.98235333778196,
              37.567516937939686
            ],
            [
              126.98330246437116,
              37.56781840799012
            ],
            [
              126.98427593742613,
              37.5681050985938
            ],
            [
              126.98527141176503,
              37.56837631908796
            ],
            [
              126.98628648920295,
              37.568631416078674
            ],
            [
              126.98731872432947,
              37.568869775014946
            ],
            [
              126.98836563039973,
              37.56909082166922
            ],
            [
              126.98942468532532,
              37.56929402352074
            ],
            [
              126.99049333775017,
              37.56947889103846
            ],
            [
              126.99156901319697,
              37.56964497886032
            ],
            [
              126.99264912026935,
              37.56979188686622
            ],
            [
              126.99373105689477,
              37.56991926114191
            ],
            [
              126.99481221659316,
              37.5700267948316
            ],
            [
              126.99588999475607,
              37.5701142288772
            ],
            [
              126.99696179492152,
              37.57018135264246
            ],
            [
              126.99802503502903,
              37.57022800442032
            ],
            [
              126.99907715364004,
              37.57025407182259
            ],
            [
              127.0001156161087,
              37.5702594920506
            ],
            [
              127.00113792068792,
              37.57024425204655
            ],
            [
              127.00214160455646,
              37.57020838852494
            ],
            [
              127.00312424975193,
              37.57015198788414
            ],
            [
              127.00408348899603,
              37.57007518599823
            ],
            [
              127.00501701139737,
              37.56997816788968
            ],
            [
              127.00592256801872,
              37.56986116728361
            ],
            [
              127.00679797729488,
              37.56972446604474
            ],
            [
              127.0076411302882,
              37.569568393498315
            ],
            [
              127.0084499957693,
              37.569393325636774
            ],
            [
              127.00922262511037,
              37.56919968421393
            ],
            [
              127.00995715697964,
              37.56898793572893
            ],
            [
              127.01065182182553,
              37.56875859030242
            ],
            [
              127.01130494613955,
              37.56851220044763
            ],
            [
              127.01191495648804,
              37.56824935973929
            ],
            [
              127.01248038330264,
              37.56797070138369
            ],
            [
              127.01299986442062,
              37.56767689669323
            ],
            [
              127.01347214836646,
              37.567368653469124
            ],
            [
              127.01389609736678,
              37.5670467142963
            ],
            [
              127.01427069009131,
              37.566711854754445
            ],
            [
              127.01459502411335,
              37.566364881549504
            ],
            [
              127.01486831808384,
              37.56600663057033
            ],
            [
              127.01508991361366,
              37.5656379648749
            ],
            [
              127.0152592768598,
              37.56525977261118
            ],
            [
              127.01537599981131,
              37.564872964877445
            ],
            [
              127.01543980127242,
              37.564478473527416
            ],
            [
              127.01545052753981,
              37.56407724892531
            ],
            [
              127.01540815277296,
              37.56367025765632
            ],
            [
              127.0153127790564,
              37.56325848019808
            ],
            [
              127.01516463615377,
              37.562842908558544
            ],
            [
              127.01496408095427,
              37.5624245438862
            ],
            [
              127.01471159661298,
              37.56200439405818
            ],
            [
              127.01440779138679,
              37.56158347125222
            ],
            [
              127.01405339716906,
              37.56116278950824
            ],
            [
              127.01364926772655,
              37.56074336228539
            ],
            [
              127.01319637664244,
              37.560326200020604
            ],
            [
              127.01269581497107,
              37.559912307694304
            ],
            [
              127.01214878860931,
              37.55950268240937
            ],
            [
              127.0115566153916,
              37.55909831098898
            ],
            [
              127.01092072191507,
              37.55870016759931
            ],
            [
              127.01024264010283,
              37.558309211402666
            ],
            [
              127.00952400351333,
              37.557926384246755
            ],
            [
              127.00876654340509,
              37.55755260839573
            ],
            [
              127.00797208456584,
              37.55718878430837
            ],
            [
              127.00714254091649,
              37.55683578846875
            ],
            [
              127.00627991090039,
              37.55649447127478
            ],
            [
              127.00538627266877,
              37.55616565498947
            ],
            [
              127.00446377907444,
              37.55585013176005
            ],
            [
              127.00351465248524,
              37.55554866170962
            ],
            [
              127.00254117943027,
              37.55526197110594
            ],
            [
              127.00154570509137,
              37.55499075061178
            ],
            [
              127.00053062765345,
              37.554735653621066
            ],
            [
              126.99949839252693,
              37.55449729468479
            ],
            [
              126.99845148645667,
              37.55427624803052
            ],
            [
              126.99739243153108,
              37.554073046179
            ],
            [
              126.99632377910623,
              37.55388817866128
            ],
            [
              126.99524810365943,
              37.55372209083942
            ],
            [
              126.99416799658705,
              37.55357518283352
            ],
            [
              126.99308605996163,
              37.55344780855783
            ],
            [
              126.99200490026324,
              37.55334027486814
            ],
            [
              126.99092712210033,
              37.55325284082254
            ],
            [
              126.98985532193488,
              37.55318571705728
            ],
            [
              126.98879208182737,
              37.55313906527942
            ],
            [
              126.98773996321636,
              37.55311299787715
            ],
            [
              126.9867015007477,
              37.553107577649136
            ],
            [
              126.98567919616848,
              37.55312281765319
            ],
            [
              126.98467551229994,
              37.5531586811748
            ],
            [
              126.98369286710447,
              37.5532150818156
            ],
            [
              126.98273362786037,
              37.55329188370151
            ],
            [
              126.98180010545903,
              37.55338890181006
            ],
            [
              126.98089454883768,
              37.55350590241613
            ],
            [
              126.98001913956152,
              37.553642603655
            ],
            [
              126.9791759865682,
              37.553798676201424
            ],
            [
              126.9783671210871,
              37.553973744062965
            ],
            [
              126.97759449174603,
              37.55416738548581
            ],
            [
              126.97685995987676,
              37.55437913397081
            ],
            [
              126.97616529503087,
              37.55460847939732
            ],
            [
              126.97551217071685,
              37.55485486925211
            ],
            [
              126.97490216036836,
              37.55511770996045
            ],
            [
              126.97433673355376,
              37.555396368316046
            ],
            [
              126.97381725243578,
              37.55569017300651
            ],
            [
              126.97334496848994,
              37.555998416230615
            ],
            [
              126.97292101948962,
              37.556320355403436
            ],
            [
              126.97254642676509,
              37.556655214945295
            ],
            [
              126.97222209274305,
              37.557002188150236
            ],
            [
              126.97194879877256,
              37.55736043912941
            ],
            [
              126.97172720324274,
              37.55772910482484
            ],
            [
              126.9715578399966,
              37.55810729708856
            ],
            [
              126.97144111704509,
              37.558494104822294
            ]
          ]
        ]
      },
      "properties": {
        "role": "analysis_ellipse",
        "name": "Core analysis ellipse",
        "major_axis_m": 3937.020031747945,
        "minor_axis_m": 1800.0,
        "bearing_deg": 259.6208564968605
      }
    },
    {
      "type": "Feature",
      "geometry": {
        "type": "Polygon",
        "coordinates": [
          [
            [
              126.96229053834942,
              37.54591301473934
            ],
            [
              127.02452657850698,
              37.54591301473934
            ],
            [
              127.02452657850698,
              37.5774540549604
            ],
            [
              126.96229053834942,
              37.5774540549604
            ],
            [
              126.96229053834942,
              37.54591301473934
            ]
          ]
        ]
      },
      "properties": {
        "role": "osm_extract_bbox",
        "name": "OSM extraction bbox",
        "bbox_buffer_m": 800.0
      }
    }
  ]
}
