{"type": "FeatureCollection", "features": [{"type": "Feature", "geometry": {"type": "Point", "coordinates": [127.015683, 37.565295]}, "properties": {"tls_id": "cluster_3849737606_8401234720_8496719924", "lat": 37.565295, "lon": 127.015683, "route_order": 0}}, {"type": "Feature", "geometry": {"type": "Point", "coordinates": [127.009302, 37.564522]}, "properties": {"tls_id": "cluster_3846534041_436877431", "lat": 37.564522, "lon": 127.009302, "route_order": 1}}, {"type": "Feature", "geometry": {"type": "Point", "coordinates": [127.002572, 37.563186]}, "properties": {"tls_id": "cluster_13348213189_13348213190_13348213191_4273893706_#1more", "lat": 37.563186, "lon": 127.002572, "route_order": 2}}, {"type": "Feature", "geometry": {"type": "Point", "coordinates": [126.993564, 37.561126]}, "properties": {"tls_id": "7335400049", "lat": 37.561126, "lon": 126.993564, "route_order": 3}}, {"type": "Feature", "geometry": {"type": "Point", "coordinates": [126.99318, 37.560996]}, "properties": {"tls_id": "cluster_11346754525_11346754526_2784736947_414685366_#2more", "lat": 37.560996, "lon": 126.99318, "route_order": 4}}, {"type": "Feature", "geometry": {"type": "Point", "coordinates": [126.98204, 37.560364]}, "properties": {"tls_id": "cluster_11203052955_11203052956_11203052960_11203052961_#11more", "lat": 37.560364, "lon": 126.98204, "route_order": 5}}, {"type": "Feature", "geometry": {"type": "Point", "coordinates": [126.973166, 37.556711]}, "properties": {"tls_id": "11139302904", "lat": 37.556711, "lon": 126.973166, "route_order": 6}}]}