{"type": "FeatureCollection", "features": [{"type": "Feature", "geometry": {"type": "Point", "coordinates": [127.013572, 37.564631]}, "properties": {"tls_id": "cluster_1326096615_3849700763", "lat": 37.564631, "lon": 127.013572, "route_order": 0}}, {"type": "Feature", "geometry": {"type": "Point", "coordinates": [127.009302, 37.564522]}, "properties": {"tls_id": "cluster_3846534041_436877431", "lat": 37.564522, "lon": 127.009302, "route_order": 1}}, {"type": "Feature", "geometry": {"type": "Point", "coordinates": [127.002632, 37.563265]}, "properties": {"tls_id": "cluster_13348213189_13348213190_13348213191", "lat": 37.563265, "lon": 127.002632, "route_order": 2}}, {"type": "Feature", "geometry": {"type": "Point", "coordinates": [127.00236, 37.563146]}, "properties": {"tls_id": "4273893706", "lat": 37.563146, "lon": 127.00236, "route_order": 3}}, {"type": "Feature", "geometry": {"type": "Point", "coordinates": [126.993564, 37.561126]}, "properties": {"tls_id": "7335400049", "lat": 37.561126, "lon": 126.993564, "route_order": 4}}, {"type": "Feature", "geometry": {"type": "Point", "coordinates": [126.993024, 37.561119]}, "properties": {"tls_id": "11346754525", "lat": 37.561119, "lon": 126.993024, "route_order": 5}}, {"type": "Feature", "geometry": {"type": "Point", "coordinates": [126.98204, 37.560364]}, "properties": {"tls_id": "cluster_11203052955_11203052956_11203052960_11203052961_#11more", "lat": 37.560364, "lon": 126.98204, "route_order": 6}}, {"type": "Feature", "geometry": {"type": "Point", "coordinates": [126.973166, 37.556711]}, "properties": {"tls_id": "11139302904", "lat": 37.556711, "lon": 126.973166, "route_order": 7}}]}