{
  "type": "FeatureCollection",
  "features": [
    {
      "type": "Feature",
      "geometry": {
        "type": "Polygon",
        "coordinates": [
          [
            [
              126.96115603197852,
              37.54501369437562
            ],
            [
              127.02566108487788,
              37.54501369437562
            ],
            [
              127.02566108487788,
              37.57835337532412
            ],
            [
              126.96115603197852,
              37.57835337532412
            ],
            [
              126.96115603197852,
              37.54501369437562
            ]
          ]
        ]
      },
      "properties": {
        "name": "expanded_v7_bbox"
      }
    }
  ]
}
